#dP2020  2  1  7  0  0.00000000     576   u+U IGS14 FIT  WHU
## 2090 543600.00000000   300.00000000 58880 0.2916666666667
+  102   G01G02G03G04G05G06G07G08G09G10G11G12G13G14G15G16G17
+        G19G20G21G22G23G24G25G26G27G28G29G30G31G32R01R02R03
+        R04R05R07R08R11R12R13R14R15R16R17R18R19R20R21R22R23
+        C01C02C03C04C06C08C09C10C11C12C13C14C19C20C21C22C23
+        C24C25C26C27C28C29C30C33C34C35C36C37E01E02E03E04E05
+        E07E08E09E11E12E13E15E19E21E24E25E26E27E30E31E33E36
+          0  0  0  0  0  0  0  0  0  0  0  0  0  0  0  0  0
++         3  4  4  4  4  4  4  3  3  5  3  3  4  3  4  3  4
++         4  3  4  3  3  3  3  4  3  3  4  3  4  3  5  4  4
++         4  4  4  4  3  4  3  3  4  3  4  4  4  4  4  4  3
++        10  9  9  9  9  9  9 10 10 10  9 10 10 10 10 10 10
++        10 10 10 10 10 10 10 10 10 10 10 10  9  9  9  9  9
++         9  9  9  9  9  9  9  9  9  9  9  9  9  9  9  9  9
++         0  0  0  0  0  0  0  0  0  0  0  0  0  0  0  0  0
%c M  cc GPS ccc cccc cccc cccc cccc ccccc ccccc ccccc ccccc
%c cc cc ccc ccc cccc cccc cccc cccc ccccc ccccc ccccc ccccc
%f  1.2500000  1.025000000  0.00000000000  0.000000000000000
%f  0.0000000  0.000000000  0.00000000000  0.000000000000000
%i    0    0    0    0      0      0      0      0         0
%i    0    0    0    0      0      0      0      0         0
/* GNSS RESEARCH CENTER, WUHAN UNIVERSITY (WHU), P. R. CHINA
/* POSITION AND NAVIGATION DATA ANALYST (PANDA) SOFTWARE    
/*
/* PCV:IGS14_2085 OL/AL:FES2004  NONE     NN ORB:CoM CLK:CoN
*  2020  2  3  2 40  0.00000000
PG01  15978.181427   2772.032787  20896.862766   -282.686960               P   P
PG02 -13882.505251 -21946.940380  -5147.079795   -397.724542               P   P
PG03  20366.112374  -9101.157406  14287.236907    -85.865565               P   P
PG04  25504.361885   -197.778143  -7450.275896    -43.403629               P   P
PG05 -10976.964172 -11007.937831 -21658.601064     -7.015295               P   P
PG06  -5828.247714 -25392.901887   5122.739034   -198.790336               P   P
PG07   8939.999931 -15464.224946 -19212.906217   -206.021364               P   P
PG08  25763.285685   6172.307481  -3230.593571    -22.403221               P   P
PG09  19766.737188  -8312.997299 -15741.841916   -146.933284               P   P
PG10  -9172.410298  22540.694598  10433.730546   -231.834179               P   P
PG11  21906.097280   7640.258576  12148.639773   -372.088093               P   P
PG12 -19953.139492   4938.466001  16498.802001    155.467175               P   P
PG13 -21033.854690 -13238.872421  -9603.561349    -15.565517               P   P
PG14   9213.688740  16234.099656  19293.656093    -34.864389               P   P
PG15 -26351.779966  -3903.539364  -2925.887164   -254.222140               P   P
PG16   9411.646698  11596.111424 -22146.030307   -120.333187               P   P
PG17   2218.289701 -14762.614610  22396.872699    209.552108               P   P
PG19  -6447.025799 -15709.008977  20129.190494   -203.886235               P   P
PG20 -14728.035089  21943.606423  -1075.885777    527.852377               P   P
PG21  -5693.069772  18242.264073 -17752.248428    -46.558166               P   P
PG22  18415.789550  -1274.999630  19277.398126   -783.751291               P   P
PG23  25443.957186  -1947.017150  -7683.558369   -138.930077               P   P
PG24 -17490.017510  -4219.101812  19456.158184     -8.438196               P   P
PG25 -19583.473032  16281.297586   6794.810250    -14.405291               P   P
PG26   2232.171694  18832.500981 -18536.265375    140.484632               P   P
PG27  19663.724972  12351.634003 -13308.804350   -199.880011               P   P
PG28   9741.007330 -21721.678491  12512.331573    741.591860               P   P
PG29 -20722.084757   5712.573781 -15644.410103    -23.436151               P   P
PG30   1279.078856 -23635.617143 -11817.783010   -144.090507               P   P
PG31   6931.460494  25271.300724   2298.451933    -20.690373               P   P
PG32   -787.374164  15377.178768  21712.311647    202.213634               P   P
PR01   7754.122124 -13604.741418 -20132.844639     56.498256               P   P
PR02 -13528.660184  -5438.740308 -20878.327676    410.088886               P   P
PR03 -23672.407033   4994.444243  -7968.331200      9.349887               P   P
PR04 -20197.173698  12466.210720   9362.973528     37.476197               P   P
PR05  -5304.874926  12784.188603  21427.314662     44.301619               P   P
PR07  23832.368369  -5259.933442   7521.968747    -32.775610               P   P
PR08  20274.279426 -12424.642257  -9204.080427    -50.362516               P   P
PR11   9382.281091 -19979.783615 -12739.100719    -12.184161               P   P
PR12   2224.086030 -25168.100036   3639.073729    102.378224               P   P
PR13  -6653.902639 -15911.551214  18775.493777    -34.376933               P   P
PR14 -11411.018740   2550.630817  22678.966064     47.718077               P   P
PR15  -9627.825655  19363.359584  13539.175655    105.818960               P   P
PR16  -1501.902001  25074.589663  -4057.374031     -1.321255               P   P
PR17 -19832.414373  -8020.263738 -13903.861723    297.720897               P   P
PR18  -9965.817330   5175.506873 -22875.351778     23.758202               P   P
PR19   4496.360181  15513.926078 -19734.314118    -77.186174               P   P
PR20  18120.446769  17662.438215  -3395.274853   -403.131100               P   P
PR21  19501.316717   7420.925119  14664.696634   -102.399170               P   P
PR22   7770.061152  -7112.113987  23247.815861    -12.441162               P   P
PR23 -10142.325396 -17486.941768  15554.425125    283.901891               P   P
PC01 -32299.629527  27102.245337   -912.479319    155.796496               P   P
PC02   4445.078427  41913.267822    151.963703    569.665980               P   P
PC03 -14788.061661  39505.220750   -646.013784   -338.762230               P   P
PC04 -39637.174610  14379.931993   -679.907196   -424.501378               P   P
PC06 -13891.046959  21901.189680  33536.580495    250.756718               P   P
PC08  -5337.030415  32146.306552 -26454.589091   -104.382573               P   P
PC09    124.880809  25173.707033  34094.205532    306.647168               P   P
PC10 -10852.818804  37059.037448 -17218.424881   -622.727054               P   P
PC11 -24708.418203 -12955.691834  -1325.130673   -159.175599               P   P
PC12 -12948.641790 -19036.856180  15828.857367    314.926223               P   P
PC13   3876.900226  38852.925275 -15461.596099    243.833810               P   P
PC14 -19750.545908  -3679.503689 -19362.708576    127.020632               P   P
PC19  24202.912678  -4236.676275  13241.819076    315.173465               P   P
PC20  12662.594525  10563.372416  22523.941980   -651.885472               P   P
PC21   6811.859946 -19538.846181 -18700.297308    -38.734008               P   P
PC22  21894.169670 -16818.994028  -3966.968998   -784.973815               P   P
PC23 -12117.194408  18082.468991  17458.668367   -882.681728               P   P
PC24 -10509.204441 -21523.212304  14334.561027   -915.625339               P   P
PC25 -16152.066503  -1602.653957  22695.622016   -503.014358               P   P
PC26      5.187376 -27878.546646  -1617.668580    557.195266               P   P
PC27   3124.947671  18331.949128 -20822.456851    271.641013               P   P
PC28 -15749.660213   8199.694537 -21521.338113    262.583805               P   P
PC29  25558.859587   5676.596419   9664.425467    182.370204               P   P
PC30  20569.342237  17020.745042  -8156.118357    265.955156               P   P
PC33 -24183.039218   4318.770984 -13248.367765   -859.595089               P   P
PC34 -20732.128865 -16955.224018   7793.905831   -440.515183               P   P
PC35  15629.063900  -8674.821255  21444.237913   -834.786451               P   P
PC36  16090.189684   2202.941186 -22673.483752   -835.724349               P   P
PC37  -1056.769274  27788.560261   2221.364334   -893.934408               P   P
PE01  17650.945292  -1243.812764 -23731.771381   -786.829884               P   P
PE02 -17661.662462   1303.849913  23712.089806    110.107628               P   P
PE03 -29004.826747   -620.985831  -5911.504359   -262.036586               P   P
PE04  24263.818647 -11754.074307 -12219.696710   -458.171681               P   P
PE05 -16780.942502 -12770.403194 -20774.885925   -408.663605               P   P
PE07  -5168.196126  17377.243969  23401.460223   -335.669562               P   P
PE08 -24070.360796  11944.017202  12425.373164   6225.782552               P   P
PE09   4956.767663 -17272.459175 -23518.898247   6168.533278               P   P
PE11  -3698.882465 -23639.964773  17417.875847   1083.422392               P   P
PE12  13218.786508  -9601.423725  24694.308277   5970.252503               P   P
PE13   3660.891442  23506.506062 -17602.399758    397.996863               P   P
PE15 -12936.438225   9823.133564 -24729.399011    878.629726               P   P
PE19  28459.989273   1994.773125   7897.080394     -1.692188               P   P
PE21   7645.697974  18780.333084 -21565.170208   -580.550552               P   P
PE24   7144.841205 -27961.428371   6630.008501   5630.125077               P   P
PE25  -7564.941438 -18879.971954  21511.514157   -502.885909               P   P
PE26  18109.294520  23412.169025    158.233149   3573.645573               P   P
PE27  -6945.664251  27974.784067  -6706.993917    290.421796               P   P
PE30 -17569.091025  20485.964143  12128.573719   4174.012186               P   P
PE31  17395.553175 -20716.824777 -12018.032147   -471.559395               P   P
PE33  21965.390575   9634.424707  17364.993496   -470.594849               P   P
PE36 -18103.612023 -23414.874257    169.543901    603.223924               P   P
EOF
